{"epoch":1784710044,"count":18256,"objects":[{"id":"69600","name":"KUIPER-00517","type":"PAYLOAD","l1":"1 69600U 26140J   26202.41972588  .00019169  00000-0  49905-3 0  9996","l2":"2 69600  51.8769 232.9085 0010810 314.0678  45.9419 15.38856179  6503"},{"id":"69601","name":"KUIPER-00520","type":"PAYLOAD","l1":"1 69601U 26140K   26202.44857155  .00016375  00000-0  44413-3 0  9997","l2":"2 69601  51.8793 233.1124 0007174  16.7279 343.3943 15.37738948  6509"},{"id":"69602","name":"KUIPER-00522","type":"PAYLOAD","l1":"1 69602U 26140L   26202.48211403  .00025393  00000-0  65985-3 0  9999","l2":"2 69602  51.8779 232.5853 0013768 290.4380  69.5128 15.38696107  6510"},{"id":"69603","name":"KUIPER-00528","type":"PAYLOAD","l1":"1 69603U 26140M   26202.58266113 -.00263950  00000-0 -76446-2 0  9997","l2":"2 69603  51.8773 232.4920 0005289  28.1178 332.0093 15.36065967  6521"},{"id":"69604","name":"KUIPER-00532","type":"PAYLOAD","l1":"1 69604U 26140N   26202.46715216  .00016393  00000-0  46152-3 0  9995","l2":"2 69604  51.8773 233.2203 0005936  50.9631 309.1883 15.36582626  6507"},{"id":"69605","name":"KUIPER-00533","type":"PAYLOAD","l1":"1 69605U 26140P   26202.30296138  .00020841  00000-0  55063-3 0  9990","l2":"2 69605  51.8766 233.6266 0008188 352.6162   7.4704 15.38368016  6480"},{"id":"69606","name":"KUIPER-00534","type":"PAYLOAD","l1":"1 69606U 26140Q   26202.34653670  .00019730  00000-0  51329-3 0  9999","l2":"2 69606  51.8806 233.1815 0013338 287.8868  72.0665 15.38827686  6494"},{"id":"69607","name":"KUIPER-00537","type":"PAYLOAD","l1":"1 69607U 26140R   26202.58335648 -.01688753  00000-0 -63393-1 0  9990","l2":"2 69607  51.8811 233.1140 0009426  72.8248   0.1483 15.29869389  5821"},{"id":"69608","name":"KUIPER-00538","type":"PAYLOAD","l1":"1 69608U 26140S   26202.44577285  .00027485  00000-0  73623-3 0  9996","l2":"2 69608  51.8791 233.0928 0009043 359.3028   0.7945 15.37768741  6500"},{"id":"69609","name":"KUIPER-00540","type":"PAYLOAD","l1":"1 69609U 26140T   26202.46079779  .00016707  00000-0  46297-3 0  9996","l2":"2 69609  51.8804 233.1906 0006898  43.3691 316.7837 15.37057349  6509"},{"id":"69610","name":"KUIPER-00541","type":"PAYLOAD","l1":"1 69610U 26140U   26202.30263367  .00024623  00000-0  64941-3 0  9991","l2":"2 69610  51.8807 233.6387 0009107 344.5340  15.5367 15.38309746  6486"},{"id":"69611","name":"KUIPER-00542","type":"PAYLOAD","l1":"1 69611U 26140V   26202.30134093  .00025733  00000-0  67668-3 0  9997","l2":"2 69611  51.8776 233.6188 0008386 330.6309  29.4206 15.38380711  6487"},{"id":"69612","name":"KUIPER-00543","type":"PAYLOAD","l1":"1 69612U 26140W   26202.46590285  .00017173  00000-0  47745-3 0  9997","l2":"2 69612  51.8778 233.2050 0008247  56.0782 304.0988 15.36923869  6501"},{"id":"69613","name":"KUIPER-00544","type":"PAYLOAD","l1":"1 69613U 26140X   26202.50115505  .00026358  00000-0  69513-3 0  9993","l2":"2 69613  51.8785 232.7076 0007899 344.3713  15.7029 15.38282093  6513"},{"id":"69614","name":"KUIPER-00546","type":"PAYLOAD","l1":"1 69614U 26140Y   26202.35022763  .00021667  00000-0  57517-3 0  9999","l2":"2 69614  51.8779 233.1998 0014111 288.2832  71.6619 15.38132602  6491"},{"id":"69615","name":"KUIPER-00547","type":"PAYLOAD","l1":"1 69615U 26140Z   26202.62670110  .00023953  00000-0  64020-3 0  9992","l2":"2 69615  51.8790 232.0605 0011315 314.4258  45.5802 15.37893341  6537"}]}