{"fetched_at":"2026-07-22T07:09:20.374Z","source":"https://celestrak.org/NORAD/elements/gp.php?GROUP=kuiper&FORMAT=JSON","constellation":"kuiper","records":[{"OBJECT_NAME":"KUIPER-00517","OBJECT_ID":"2026-140J","EPOCH":"2026-07-21T10:04:24.316032","CLASSIFICATION_TYPE":"U","MEAN_MOTION":15.38856179,"ECCENTRICITY":0.00108102,"INCLINATION":51.8769,"RA_OF_ASC_NODE":232.9085,"ARG_OF_PERICENTER":314.0678,"MEAN_ANOMALY":45.9419,"EPHEMERIS_TYPE":0,"NORAD_CAT_ID":69600,"ELEMENT_SET_NO":999,"REV_AT_EPOCH":650,"BSTAR":0.00049904798,"MEAN_MOTION_DOT":0.00019169,"MEAN_MOTION_DDOT":0},{"OBJECT_NAME":"KUIPER-00520","OBJECT_ID":"2026-140K","EPOCH":"2026-07-21T10:45:56.581920","CLASSIFICATION_TYPE":"U","MEAN_MOTION":15.37738948,"ECCENTRICITY":0.00071743,"INCLINATION":51.8793,"RA_OF_ASC_NODE":233.1124,"ARG_OF_PERICENTER":16.7279,"MEAN_ANOMALY":343.3943,"EPHEMERIS_TYPE":0,"NORAD_CAT_ID":69601,"ELEMENT_SET_NO":999,"REV_AT_EPOCH":650,"BSTAR":0.00044413324,"MEAN_MOTION_DOT":0.00016375,"MEAN_MOTION_DDOT":0},{"OBJECT_NAME":"KUIPER-00522","OBJECT_ID":"2026-140L","EPOCH":"2026-07-21T11:34:14.652192","CLASSIFICATION_TYPE":"U","MEAN_MOTION":15.38696107,"ECCENTRICITY":0.00137684,"INCLINATION":51.8779,"RA_OF_ASC_NODE":232.5853,"ARG_OF_PERICENTER":290.438,"MEAN_ANOMALY":69.5128,"EPHEMERIS_TYPE":0,"NORAD_CAT_ID":69602,"ELEMENT_SET_NO":999,"REV_AT_EPOCH":651,"BSTAR":0.00065985389,"MEAN_MOTION_DOT":0.00025393,"MEAN_MOTION_DDOT":0},{"OBJECT_NAME":"KUIPER-00528","OBJECT_ID":"2026-140M","EPOCH":"2026-07-21T13:59:01.921632","CLASSIFICATION_TYPE":"U","MEAN_MOTION":15.36065967,"ECCENTRICITY":0.00052893,"INCLINATION":51.8773,"RA_OF_ASC_NODE":232.492,"ARG_OF_PERICENTER":28.1178,"MEAN_ANOMALY":332.0093,"EPHEMERIS_TYPE":0,"NORAD_CAT_ID":69603,"ELEMENT_SET_NO":999,"REV_AT_EPOCH":652,"BSTAR":-0.0076445978,"MEAN_MOTION_DOT":-0.0026395,"MEAN_MOTION_DDOT":0},{"OBJECT_NAME":"KUIPER-00532","OBJECT_ID":"2026-140N","EPOCH":"2026-07-21T11:12:41.946624","CLASSIFICATION_TYPE":"U","MEAN_MOTION":15.36582626,"ECCENTRICITY":0.00059359,"INCLINATION":51.8773,"RA_OF_ASC_NODE":233.2203,"ARG_OF_PERICENTER":50.9631,"MEAN_ANOMALY":309.1883,"EPHEMERIS_TYPE":0,"NORAD_CAT_ID":69604,"ELEMENT_SET_NO":999,"REV_AT_EPOCH":650,"BSTAR":0.00046151954,"MEAN_MOTION_DOT":0.00016393,"MEAN_MOTION_DDOT":0},{"OBJECT_NAME":"KUIPER-00533","OBJECT_ID":"2026-140P","EPOCH":"2026-07-21T07:16:15.863232","CLASSIFICATION_TYPE":"U","MEAN_MOTION":15.38368016,"ECCENTRICITY":0.0008188,"INCLINATION":51.8766,"RA_OF_ASC_NODE":233.6266,"ARG_OF_PERICENTER":352.6162,"MEAN_ANOMALY":7.4704,"EPHEMERIS_TYPE":0,"NORAD_CAT_ID":69605,"ELEMENT_SET_NO":999,"REV_AT_EPOCH":648,"BSTAR":0.00055063076,"MEAN_MOTION_DOT":0.00020841,"MEAN_MOTION_DDOT":0},{"OBJECT_NAME":"KUIPER-00534","OBJECT_ID":"2026-140Q","EPOCH":"2026-07-21T08:19:00.770880","CLASSIFICATION_TYPE":"U","MEAN_MOTION":15.38827686,"ECCENTRICITY":0.00133381,"INCLINATION":51.8806,"RA_OF_ASC_NODE":233.1815,"ARG_OF_PERICENTER":287.8868,"MEAN_ANOMALY":72.0665,"EPHEMERIS_TYPE":0,"NORAD_CAT_ID":69606,"ELEMENT_SET_NO":999,"REV_AT_EPOCH":649,"BSTAR":0.00051328663,"MEAN_MOTION_DOT":0.0001973,"MEAN_MOTION_DDOT":0},{"OBJECT_NAME":"KUIPER-00537","OBJECT_ID":"2026-140R","EPOCH":"2026-07-21T14:00:01.999872","CLASSIFICATION_TYPE":"U","MEAN_MOTION":15.29869389,"ECCENTRICITY":0.00094264,"INCLINATION":51.8811,"RA_OF_ASC_NODE":233.114,"ARG_OF_PERICENTER":72.8248,"MEAN_ANOMALY":0.1483,"EPHEMERIS_TYPE":0,"NORAD_CAT_ID":69607,"ELEMENT_SET_NO":999,"REV_AT_EPOCH":582,"BSTAR":-0.063392697,"MEAN_MOTION_DOT":-0.01688753,"MEAN_MOTION_DDOT":0},{"OBJECT_NAME":"KUIPER-00538","OBJECT_ID":"2026-140S","EPOCH":"2026-07-21T10:41:54.774240","CLASSIFICATION_TYPE":"U","MEAN_MOTION":15.37768741,"ECCENTRICITY":0.0009043,"INCLINATION":51.8791,"RA_OF_ASC_NODE":233.0928,"ARG_OF_PERICENTER":359.3028,"MEAN_ANOMALY":0.7945,"EPHEMERIS_TYPE":0,"NORAD_CAT_ID":69608,"ELEMENT_SET_NO":999,"REV_AT_EPOCH":650,"BSTAR":0.00073622838,"MEAN_MOTION_DOT":0.00027485,"MEAN_MOTION_DDOT":0},{"OBJECT_NAME":"KUIPER-00540","OBJECT_ID":"2026-140T","EPOCH":"2026-07-21T11:03:32.929056","CLASSIFICATION_TYPE":"U","MEAN_MOTION":15.37057349,"ECCENTRICITY":0.00068983,"INCLINATION":51.8804,"RA_OF_ASC_NODE":233.1906,"ARG_OF_PERICENTER":43.3691,"MEAN_ANOMALY":316.7837,"EPHEMERIS_TYPE":0,"NORAD_CAT_ID":69609,"ELEMENT_SET_NO":999,"REV_AT_EPOCH":650,"BSTAR":0.00046296971,"MEAN_MOTION_DOT":0.00016707,"MEAN_MOTION_DDOT":0},{"OBJECT_NAME":"KUIPER-00541","OBJECT_ID":"2026-140U","EPOCH":"2026-07-21T07:15:47.549088","CLASSIFICATION_TYPE":"U","MEAN_MOTION":15.38309746,"ECCENTRICITY":0.00091068,"INCLINATION":51.8807,"RA_OF_ASC_NODE":233.6387,"ARG_OF_PERICENTER":344.534,"MEAN_ANOMALY":15.5367,"EPHEMERIS_TYPE":0,"NORAD_CAT_ID":69610,"ELEMENT_SET_NO":999,"REV_AT_EPOCH":648,"BSTAR":0.00064940549,"MEAN_MOTION_DOT":0.00024623,"MEAN_MOTION_DDOT":0},{"OBJECT_NAME":"KUIPER-00542","OBJECT_ID":"2026-140V","EPOCH":"2026-07-21T07:13:55.856352","CLASSIFICATION_TYPE":"U","MEAN_MOTION":15.38380711,"ECCENTRICITY":0.00083865,"INCLINATION":51.8776,"RA_OF_ASC_NODE":233.6188,"ARG_OF_PERICENTER":330.6309,"MEAN_ANOMALY":29.4206,"EPHEMERIS_TYPE":0,"NORAD_CAT_ID":69611,"ELEMENT_SET_NO":999,"REV_AT_EPOCH":648,"BSTAR":0.00067668056,"MEAN_MOTION_DOT":0.00025733,"MEAN_MOTION_DDOT":0},{"OBJECT_NAME":"KUIPER-00543","OBJECT_ID":"2026-140W","EPOCH":"2026-07-21T11:10:54.006240","CLASSIFICATION_TYPE":"U","MEAN_MOTION":15.36923869,"ECCENTRICITY":0.00082472,"INCLINATION":51.8778,"RA_OF_ASC_NODE":233.205,"ARG_OF_PERICENTER":56.0782,"MEAN_ANOMALY":304.0988,"EPHEMERIS_TYPE":0,"NORAD_CAT_ID":69612,"ELEMENT_SET_NO":999,"REV_AT_EPOCH":650,"BSTAR":0.00047745499,"MEAN_MOTION_DOT":0.00017173,"MEAN_MOTION_DDOT":0},{"OBJECT_NAME":"KUIPER-00544","OBJECT_ID":"2026-140X","EPOCH":"2026-07-21T12:01:39.796320","CLASSIFICATION_TYPE":"U","MEAN_MOTION":15.38282093,"ECCENTRICITY":0.00078991,"INCLINATION":51.8785,"RA_OF_ASC_NODE":232.7076,"ARG_OF_PERICENTER":344.3713,"MEAN_ANOMALY":15.7029,"EPHEMERIS_TYPE":0,"NORAD_CAT_ID":69613,"ELEMENT_SET_NO":999,"REV_AT_EPOCH":651,"BSTAR":0.00069513336,"MEAN_MOTION_DOT":0.00026358,"MEAN_MOTION_DDOT":0},{"OBJECT_NAME":"KUIPER-00546","OBJECT_ID":"2026-140Y","EPOCH":"2026-07-21T08:24:19.667232","CLASSIFICATION_TYPE":"U","MEAN_MOTION":15.38132602,"ECCENTRICITY":0.00141115,"INCLINATION":51.8779,"RA_OF_ASC_NODE":233.1998,"ARG_OF_PERICENTER":288.2832,"MEAN_ANOMALY":71.6619,"EPHEMERIS_TYPE":0,"NORAD_CAT_ID":69614,"ELEMENT_SET_NO":999,"REV_AT_EPOCH":649,"BSTAR":0.00057517282,"MEAN_MOTION_DOT":0.00021667,"MEAN_MOTION_DDOT":0},{"OBJECT_NAME":"KUIPER-00547","OBJECT_ID":"2026-140Z","EPOCH":"2026-07-21T15:02:26.975040","CLASSIFICATION_TYPE":"U","MEAN_MOTION":15.37893341,"ECCENTRICITY":0.00113146,"INCLINATION":51.879,"RA_OF_ASC_NODE":232.0605,"ARG_OF_PERICENTER":314.4258,"MEAN_ANOMALY":45.5802,"EPHEMERIS_TYPE":0,"NORAD_CAT_ID":69615,"ELEMENT_SET_NO":999,"REV_AT_EPOCH":653,"BSTAR":0.00064020153,"MEAN_MOTION_DOT":0.00023953,"MEAN_MOTION_DDOT":0}]}
